satname,norad_id,inclination_deg,eccentricity,mean_motion_rev_per_day,perigee_km,apogee_km,l1,l2
STARLINK-1234,45190,53.0342,0.0002429,15.85296704,313.8635388302473,317.11530254541685,1 45190U 20012N   26192.82479250  .00092364  00000+0  37882-3 0  9995,2 45190  53.0342  69.6752 0002429 233.2357 126.8443 15.85296704355407
STARLINK-1269,45197,53.1538,0.0003309,15.3784107,450.2344747194029,454.7549867988191,1 45197U 20012V   26192.94071432  .00028812  00000+0  77083-3 0  9999,2 45197  53.1538 179.9127 0003309  34.7271 325.3948 15.37841070353975
STARLINK-1154,45198,53.0391,0.000431,15.6652982,365.9346521372354,371.75054855273356,1 45198U 20012W   26193.20449884  .00031224  00000+0  29759-3 0  9998,2 45198  53.0391 126.0138 0004310  83.6622 276.4884 15.66529820354696
STARLINK-1199,45201,53.1535,0.0005676,15.37830656,448.64848411573166,456.4026522631393,1 45201U 20012Z   26193.30221859  .00035071  00000+0  93529-3 0  9994,2 45201  53.1535 162.4873 0005676  38.6072 321.5337 15.37830656354276
STARLINK-1209,45206,53.0352,0.0001177,15.74490384,345.2903035229465,346.8731846153014,1 45206U 20012AE  26193.11539606  .00051931  00000+0  35204-3 0  9999,2 45206  53.0352  85.3232 0001177 199.2817 160.8157 15.74490384354367
STARLINK-1231,45212,53.032,0.0004898,15.29976685,472.5248303861854,479.2390273288938,1 45212U 20012AL  26193.32455638  .00015962  00000+0  55353-3 0  9992,2 45212  53.0320 159.0731 0004898  75.8310 284.3233 15.29976685354250
STARLINK-1271,45217,53.153,0.0005216,15.380218,448.39703890317196,455.5221956943369,1 45217U 20012AR  26193.29555640  .00032333  00000+0  85815-3 0  9994,2 45217  53.1530 162.5964 0005216  42.5803 317.5605 15.38021800354273
STARLINK-1191,45222,53.1534,0.0003155,15.42452524,436.7228594806111,441.02439318582674,1 45222U 20012AW  26193.24747377  .00053080  00000+0  12088-2 0  9998,2 45222  53.1534 134.7954 0003155  27.8522 332.2652 15.42452524354662
STARLINK-1212,45223,53.0382,0.0001457,15.73233703,348.68184629049483,350.64232694433576,1 45223U 20012AX  26193.76831616  .00054475  00000+0  38940-3 0  9991,2 45223  53.0382  97.6942 0001457 168.2495 191.8557 15.73233703355203
STARLINK-1215,45225,53.154,0.0005121,15.38134798,448.1275798418301,455.12262218568776,1 45225U 20012AZ  26193.22689743  .00037578  00000+0  99135-3 0  9994,2 45225  53.1540 137.1494 0005121  50.6241 309.5216 15.38134798354584
STARLINK-1221,45227,53.0643,0.0002956,15.46508515,424.93761927084324,428.96078623391077,1 45227U 20012BB  26193.77131625  .00012274  00000+0  25149-3 0  9997,2 45227  53.0643  34.9733 0002956  61.4649 298.6655 15.46508515356032
STARLINK-1222,45228,53.0517,0.0003673,15.57547401,392.2700591507455,397.2454276292392,1 45228U 20012BC  26193.17745274  .00023977  00000+0  32523-3 0  9999,2 45228  53.0517 102.4272 0003673  95.4837 264.6594 15.57547401354970
STARLINK-1226,45229,53.1527,0.0005075,15.47950924,419.2697078684141,426.17257888394215,1 45229U 20012BD  26193.82486640  .00056303  00000+0  10619-2 0  9991,2 45229  53.1527 128.0655 0005075  49.1997 310.9451 15.47950924354708
STARLINK-1227,45230,53.1509,0.0004638,15.47987038,419.46117957728256,425.7695574743266,1 45230U 20012BE  26193.25146755  .00051964  00000+0  98008-3 0  9997,2 45230  53.1509 130.8782 0004638  43.9252 316.2124 15.47987038354737
STARLINK-1246,45235,53.1516,0.0005164,15.3812107,448.13882870110683,455.1926489697762,1 45235U 20012BK  26193.33467286  .00032363  00000+0  85618-3 0  9991,2 45235  53.1516 177.6617 0005164  11.6617 348.4505 15.38121070354093
STARLINK-1270,45237,53.0372,0.0001423,15.72153977,351.78428124835045,353.6998894360386,1 45237U 20012BM  26193.76623470  .00047869  00000+0  35906-3 0  9991,2 45237  53.0372  99.6342 0001423 169.4276 190.6772 15.72153977355171
STARLINK-1279,45360,53.0301,0.0004117,15.86771821,308.5863048032352,314.0944204636271,1 45360U 20019A   26193.84514380  .00123828  00000+0  46998-3 0  9996,2 45360  53.0301 198.9478 0004117  33.9791 326.1495 15.86771821350344
STARLINK-1301,45361,53.0289,0.0006162,15.88417451,302.6000741270718,310.8384910097093,1 45361U 20019B   26193.91668980  .00206826  00000+0  71474-3 0  9998,2 45361  53.0289 200.5053 0006162  37.7282 120.8064 15.88417451  5962
STARLINK-1262,45366,53.1536,0.0002137,15.37125174,453.1552587295828,456.0755771130025,1 45366U 20019G   26193.58853356  .00044627  00000+0  12136-2 0  9997,2 45366  53.1536 303.1664 0002137 278.1801  81.8960 15.37125174348904
STARLINK-1273,45367,53.042,0.0002239,15.62219425,379.73408534676037,382.7609377310273,1 45367U 20019H   26193.48926595  .00065156  00000+0  72661-3 0  9993,2 45367  53.0420 272.9484 0002239 343.5660  16.5281 15.62219425349297
STARLINK-1277,45369,53.0398,0.0003069,15.70741726,354.70901690955725,358.8429064854463,1 45369U 20019K   26193.57435722  .00039165  00000+0  31285-3 0  9990,2 45369  53.0398 264.4076 0003069  17.3842 342.7279 15.70741726349425
STARLINK-1281,45370,53.1571,0.0001187,15.37928291,451.4257045087925,453.0472351705321,1 45370U 20019L   26193.58139580  .00038487  00000+0  10221-2 0  9998,2 45370  53.1571 302.6347 0001187 254.5117 105.5756 15.37928291348911
STARLINK-1300,45374,53.1571,0.0001782,15.38524126,449.25600004229364,451.689716595798,1 45374U 20019Q   26193.58046670  .00042687  00000+0  11102-2 0  9995,2 45374  53.1571 302.4043 0001782 264.2001  95.8800 15.38524126348918
STARLINK-1302,45375,53.0429,7.23e-05,15.71009634,355.5233806297856,356.4971383235061,1 45375U 20019R   26193.79856016  .00045655  00000+0  35963-3 0  9992,2 45375  53.0429 259.0923 0000723  92.8051 267.3048 15.71009634349514
STARLINK-1304,45376,53.0408,9.25e-05,15.66625226,367.94460415651884,369.1927447062899,1 45376U 20019S   26193.70153797  .00033280  00000+0  31564-3 0  9994,2 45376  53.0408 261.9339 0000925 313.7057  46.3881 15.66625226349469
STARLINK-1305,45377,53.0345,0.0007181,15.76234551,336.2953175185985,345.9455150198455,1 45377U 20019T   26193.58613556  .00053631  00000+0  33635-3 0  9998,2 45377  53.0345 238.7665 0007181  10.8809 349.2365 15.76234551349780
STARLINK-1319,45379,53.0329,0.0004062,15.84240954,315.74272003745773,321.18303777908386,1 45379U 20019V   26193.78163640  .00096723  00000+0  41676-3 0  9999,2 45379  53.0329 227.7088 0004062  27.2678 332.8557 15.84240954349955
STARLINK-1266,45383,53.0425,0.0004343,15.69129749,358.4607427529518,364.3146939233011,1 45383U 20019Z   26193.40747084  .00031702  00000+0  27182-3 0  9995,2 45383  53.0425 247.7158 0004343   7.7746 352.3337 15.69129749349637
STARLINK-1267,45384,53.0401,0.000269,15.73728974,346.4410693888922,350.05986584647144,1 45384U 20019AA  26193.13153143  .00045963  00000+0  32265-3 0  9995,2 45384  53.0401 239.6888 0002690  36.5610 323.5592 15.73728974349728
STARLINK-1272,45386,53.0354,0.0002936,15.78804727,331.8555049269189,335.7967696811438,1 45386U 20019AC  26193.11807181  .00060696  00000+0  33923-3 0  9995,2 45386  53.0354 217.3817 0002936  45.7519 314.3742 15.78804727350032
STARLINK-1274,45387,53.0162,0.0006168,15.68757812,358.29533026219633,366.61052199506867,1 45387U 20019AD  26193.09169414  .00083897  00000+0  71727-3 0  9995,2 45387  53.0162 218.9728 0006168 326.4348  33.6276 15.68757812350009
STARLINK-1280,45388,53.0286,0.0006671,15.91993175,292.2529855168068,301.15856074471776,1 45388U 20019AE  26193.91668980  .00212271  27941-4  63329-3 0  9996,2 45388  53.0286 217.7513 0006671  28.8627  34.0680 15.91993175  6066
STARLINK-1283,45389,53.0346,0.0004228,15.76045805,338.815738686686,344.49799638107106,1 45389U 20019AF  26191.68950258  .00056783  00000+0  35905-3 0  9996,2 45389  53.0346 223.7394 0004228 359.2854   0.8158 15.76045805349823
STARLINK-1284,45390,53.0378,0.0004139,15.74217736,344.0746507572303,349.64160172273205,1 45390U 20019AG  26193.14078731  .00051306  00000+0  35187-3 0  9996,2 45390  53.0378 240.8376 0004139  58.0547 302.0873 15.74217736349704
STARLINK-1297,45395,53.0392,0.0003601,15.77393356,335.41080223065364,340.2476411034986,1 45395U 20019AM  26193.63605448  .00062727  00000+0  37314-3 0  9999,2 45395  53.0392 237.0949 0003601  28.0840 332.0373 15.77393356348988
STARLINK-1307,45397,53.0507,0.0002232,15.59037355,388.9311240928655,391.9526177008338,1 45397U 20019AP  26193.45717277  .00020769  00000+0  26743-3 0  9999,2 45397  53.0507 247.8392 0002232   0.3849 359.7164 15.59037355349462
STARLINK-1255,45399,53.0305,0.0001289,15.68988481,360.923475929957,362.66102969133226,1 45399U 20019AR  26193.09457237  .00030625  00000+0  26439-3 0  9992,2 45399  53.0305 215.0058 0001289 337.4166  22.6793 15.68988481349877
STARLINK-1260,45404,53.1539,0.0001638,15.4119831,441.4543094517594,443.68877356995836,1 45404U 20019AW  26193.68291657  .00043581  00000+0  10379-2 0  9996,2 45404  53.1539 264.0800 0001638 293.0162  67.0671 15.41198310349170
STARLINK-1263,45405,53.1566,0.0002932,15.38214984,449.3853286928206,453.39016200349215,1 45405U 20019AX  26193.52534564  .00030824  00000+0  81383-3 0  9997,2 45405  53.1566 266.8187 0002932 303.2515  56.8208 15.38214984349122
STARLINK-1265,45406,53.1544,0.0002289,15.41629667,439.73819712889053,442.8601350057161,1 45406U 20019AY  26193.47205658  .00016008  00000+0  38320-3 0  9992,2 45406  53.1544 264.9697 0002289 344.0705  16.0229 15.41629667349148
STARLINK-1278,45408,53.0356,0.0002967,15.785779,332.47745623912397,336.46071669083267,1 45408U 20019BA  26193.57561920  .00055269  00000+0  31260-3 0  9990,2 45408  53.0356 236.0493 0002967  40.8247 319.2994 15.78577900349531
STARLINK-1296,45412,53.1534,0.0001109,15.41789916,440.07040704484643,441.5828531780053,1 45412U 20019BE  26193.57234838  .00037245  00000+0  87184-3 0  9990,2 45412  53.1534 264.1395 0001109 300.0416  60.0480 15.41789916349166
STARLINK-1309,45414,53.0557,0.0003248,15.76781272,337.38522713417024,341.7490477418496,1 45414U 20019BG  26193.56238821  .00051402  00000+0  31533-3 0  9995,2 45414  53.0557 230.4876 0003248  40.7486 319.3776 15.76781272349593
